{"type": "FeatureCollection", "features": [ {"type": "Feature", "properties": {"norad_id": 52912, "name": "GAOFEN-12 03", "group": "resource", "lat": -49.20870319610161, "lon": -109.75433532918265, "alt_km": 637.6980183899768, "timestamp": "2025-12-19T20:42:59.739023+00:00", "meta": {"OBJECT_NAME": "GAOFEN-12 03", "OBJECT_ID": "2022-069A", "EPOCH": "2025-12-19T06:20:03.350688", "MEAN_MOTION": 14.7962559, "ECCENTRICITY": 0.00020345, "INCLINATION": 97.8488, "RA_OF_ASC_NODE": 240.4617, "ARG_OF_PERICENTER": 54.61, "MEAN_ANOMALY": 305.5301, "EPHEMERIS_TYPE": 0, "CLASSIFICATION_TYPE": "U", "NORAD_CAT_ID": 52912, "ELEMENT_SET_NO": 999, "REV_AT_EPOCH": 18800, "BSTAR": 0.00018875577, "MEAN_MOTION_DOT": 1.364e-05, "MEAN_MOTION_DDOT": 0}, "tle": {"line1": "1 52912U 22069A   25353.26392767  .00001364  00000+0  18876-3 0  9994", "line2": "2 52912  97.8488 240.4617 0002034  54.6100 305.5301 14.79625590188006"}}, "geometry": {"type": "Point", "coordinates": [-109.75433532918265, -49.20870319610161]}}, {"type": "Feature", "properties": {"norad_id": 54754, "name": "SWOT", "group": "resource", "lat": 52.3627334224451, "lon": -66.06468675074827, "alt_km": 887.9376119195704, "timestamp": "2025-12-19T20:42:59.739033+00:00", "meta": {"OBJECT_NAME": "SWOT", "OBJECT_ID": "2022-173A", "EPOCH": "2025-12-19T05:01:28.718688", "MEAN_MOTION": 14.00167804, "ECCENTRICITY": 3.62e-05, "INCLINATION": 77.6108, "RA_OF_ASC_NODE": 278.2565, "ARG_OF_PERICENTER": 95.2456, "MEAN_ANOMALY": 264.8737, "EPHEMERIS_TYPE": 0, "CLASSIFICATION_TYPE": "U", "NORAD_CAT_ID": 54754, "ELEMENT_SET_NO": 999, "REV_AT_EPOCH": 15396, "BSTAR": 3.2309058e-05, "MEAN_MOTION_DOT": 4.5e-07, "MEAN_MOTION_DDOT": 0}, "tle": {"line1": "1 54754U 22173A   25353.20936017  .00000045  00000+0  32309-4 0  9995", "line2": "2 54754  77.6108 278.2565 0000362  95.2456 264.8737 14.00167804153965"}}, "geometry": {"type": "Point", "coordinates": [-66.06468675074827, 52.3627334224451]}}, {"type": "Feature", "properties": {"norad_id": 57654, "name": "GAOFEN-12 04", "group": "resource", "lat": 56.800318873334824, "lon": 101.78342060338699, "alt_km": 624.1904289018103, "timestamp": "2025-12-19T20:42:59.739043+00:00", "meta": {"OBJECT_NAME": "GAOFEN-12 04", "OBJECT_ID": "2023-123A", "EPOCH": "2025-12-19T07:10:57.425664", "MEAN_MOTION": 14.79717769, "ECCENTRICITY": 0.00012401, "INCLINATION": 97.9126, "RA_OF_ASC_NODE": 268.957, "ARG_OF_PERICENTER": 76.436, "MEAN_ANOMALY": 283.699, "EPHEMERIS_TYPE": 0, "CLASSIFICATION_TYPE": "U", "NORAD_CAT_ID": 57654, "ELEMENT_SET_NO": 999, "REV_AT_EPOCH": 12602, "BSTAR": 0.00013210571, "MEAN_MOTION_DOT": 9.41e-06, "MEAN_MOTION_DDOT": 0}, "tle": {"line1": "1 57654U 23123A   25353.29927576  .00000941  00000+0  13211-3 0  9997", "line2": "2 57654  97.9126 268.9570 0001240  76.4360 283.6990 14.79717769126029"}}, "geometry": {"type": "Point", "coordinates": [101.78342060338699, 56.800318873334824]}}, {"type": "Feature", "properties": {"norad_id": 59065, "name": "PARS 1", "group": "resource", "lat": -69.34310631935209, "lon": -14.703222245132032, "alt_km": 454.35557560324287, "timestamp": "2025-12-19T20:42:59.739054+00:00", "meta": {"OBJECT_NAME": "PARS 1", "OBJECT_ID": "2024-039Q", "EPOCH": "2025-12-19T06:59:52.777248", "MEAN_MOTION": 15.41116735, "ECCENTRICITY": 0.00121528, "INCLINATION": 97.4637, "RA_OF_ASC_NODE": 324.3637, "ARG_OF_PERICENTER": 52.5248, "MEAN_ANOMALY": 307.7101, "EPHEMERIS_TYPE": 0, "CLASSIFICATION_TYPE": "U", "NORAD_CAT_ID": 59065, "ELEMENT_SET_NO": 999, "REV_AT_EPOCH": 10089, "BSTAR": 0.00021691469, "MEAN_MOTION_DOT": 8.914e-05, "MEAN_MOTION_DDOT": 0}, "tle": {"line1": "1 59065U 24039Q   25353.29158307  .00008914  00000+0  21691-3 0  9999", "line2": "2 59065  97.4637 324.3637 0012152  52.5248 307.7101 15.41116735100899"}}, "geometry": {"type": "Point", "coordinates": [-14.703222245132032, -69.34310631935209]}}, {"type": "Feature", "properties": {"norad_id": 59371, "name": "RESURS-P 4", "group": "resource", "lat": -22.39289212770438, "lon": 117.03811094161942, "alt_km": 475.52593784754663, "timestamp": "2025-12-19T20:42:59.739064+00:00", "meta": {"OBJECT_NAME": "RESURS-P 4", "OBJECT_ID": "2024-061A", "EPOCH": "2025-12-19T07:17:45.709728", "MEAN_MOTION": 15.32135235, "ECCENTRICITY": 0.00010699, "INCLINATION": 97.2553, "RA_OF_ASC_NODE": 299.4992, "ARG_OF_PERICENTER": 59.8015, "MEAN_ANOMALY": 300.3333, "EPHEMERIS_TYPE": 0, "CLASSIFICATION_TYPE": "U", "NORAD_CAT_ID": 59371, "ELEMENT_SET_NO": 999, "REV_AT_EPOCH": 9621, "BSTAR": 0.00010183829, "MEAN_MOTION_DOT": 3.083e-05, "MEAN_MOTION_DDOT": 0}, "tle": {"line1": "1 59371U 24061A   25353.30400127  .00003083  00000+0  10184-3 0  9993", "line2": "2 59371  97.2553 299.4992 0001069  59.8015 300.3333 15.32135235 96219"}}, "geometry": {"type": "Point", "coordinates": [117.03811094161942, -22.39289212770438]}}, {"type": "Feature", "properties": {"norad_id": 59625, "name": "LEGION 1", "group": "resource", "lat": 27.92079496264689, "lon": 64.42622269510854, "alt_km": 515.7025439802364, "timestamp": "2025-12-19T20:42:59.739075+00:00", "meta": {"OBJECT_NAME": "LEGION 1", "OBJECT_ID": "2024-081A", "EPOCH": "2025-12-19T06:20:26.658816", "MEAN_MOTION": 15.16541175, "ECCENTRICITY": 0.00036502, "INCLINATION": 97.5212, "RA_OF_ASC_NODE": 67.8472, "ARG_OF_PERICENTER": 288.1686, "MEAN_ANOMALY": 71.9149, "EPHEMERIS_TYPE": 0, "CLASSIFICATION_TYPE": "U", "NORAD_CAT_ID": 59625, "ELEMENT_SET_NO": 999, "REV_AT_EPOCH": 9026, "BSTAR": 0.00017524977, "MEAN_MOTION_DOT": 3.35e-05, "MEAN_MOTION_DDOT": 0}, "tle": {"line1": "1 59625U 24081A   25353.26419744  .00003350  00000+0  17525-3 0  9990", "line2": "2 59625  97.5212  67.8472 0003650 288.1686  71.9149 15.16541175 90266"}}, "geometry": {"type": "Point", "coordinates": [64.42622269510854, 27.92079496264689]}}, {"type": "Feature", "properties": {"norad_id": 59626, "name": "LEGION 2", "group": "resource", "lat": -28.12138294576586, "lon": -115.52027115180329, "alt_km": 519.9166249732089, "timestamp": "2025-12-19T20:42:59.739085+00:00", "meta": {"OBJECT_NAME": "LEGION 2", "OBJECT_ID": "2024-081B", "EPOCH": "2025-12-19T05:32:55.086432", "MEAN_MOTION": 15.16553498, "ECCENTRICITY": 0.00056272, "INCLINATION": 97.5215, "RA_OF_ASC_NODE": 67.9022, "ARG_OF_PERICENTER": 265.3267, "MEAN_ANOMALY": 94.7324, "EPHEMERIS_TYPE": 0, "CLASSIFICATION_TYPE": "U", "NORAD_CAT_ID": 59626, "ELEMENT_SET_NO": 999, "REV_AT_EPOCH": 9026, "BSTAR": 0.00021133375, "MEAN_MOTION_DOT": 4.057e-05, "MEAN_MOTION_DDOT": 0}, "tle": {"line1": "1 59626U 24081B   25353.23119313  .00004057  00000+0  21133-3 0  9992", "line2": "2 59626  97.5215  67.9022 0005627 265.3267  94.7324 15.16553498 90269"}}, "geometry": {"type": "Point", "coordinates": [-115.52027115180329, -28.12138294576586]}}, {"type": "Feature", "properties": {"norad_id": 60182, "name": "ALOS-4 (DAICHI-4)", "group": "resource", "lat": -3.3516368908989658, "lon": 89.07594539839474, "alt_km": 634.6505758818448, "timestamp": "2025-12-19T20:42:59.739095+00:00", "meta": {"OBJECT_NAME": "ALOS-4 (DAICHI-4)", "OBJECT_ID": "2024-123A", "EPOCH": "2025-12-19T06:07:23.422080", "MEAN_MOTION": 14.79472318, "ECCENTRICITY": 0.00013838, "INCLINATION": 97.9224, "RA_OF_ASC_NODE": 88.0094, "ARG_OF_PERICENTER": 101.7913, "MEAN_ANOMALY": 258.3454, "EPHEMERIS_TYPE": 0, "CLASSIFICATION_TYPE": "U", "NORAD_CAT_ID": 60182, "ELEMENT_SET_NO": 999, "REV_AT_EPOCH": 7927, "BSTAR": 0.00020711453, "MEAN_MOTION_DOT": 1.496e-05, "MEAN_MOTION_DDOT": 0}, "tle": {"line1": "1 60182U 24123A   25353.25513220  .00001496  00000+0  20711-3 0  9990", "line2": "2 60182  97.9224  88.0094 0001383 101.7913 258.3454 14.79472318 79270"}}, "geometry": {"type": "Point", "coordinates": [89.07594539839474, -3.3516368908989658]}}, {"type": "Feature", "properties": {"norad_id": 60452, "name": "LEGION 3", "group": "resource", "lat": -36.22993194571474, "lon": -135.2088038545564, "alt_km": 517.3824623067512, "timestamp": "2025-12-19T20:42:59.739105+00:00", "meta": {"OBJECT_NAME": "LEGION 3", "OBJECT_ID": "2024-146A", "EPOCH": "2025-12-19T05:08:58.669152", "MEAN_MOTION": 15.15826747, "ECCENTRICITY": 0.0015578, "INCLINATION": 45.0023, "RA_OF_ASC_NODE": 275.4208, "ARG_OF_PERICENTER": 233.6094, "MEAN_ANOMALY": 126.3348, "EPHEMERIS_TYPE": 0, "CLASSIFICATION_TYPE": "U", "NORAD_CAT_ID": 60452, "ELEMENT_SET_NO": 999, "REV_AT_EPOCH": 7471, "BSTAR": 0.00018927244, "MEAN_MOTION_DOT": 3.424e-05, "MEAN_MOTION_DDOT": 0}, "tle": {"line1": "1 60452U 24146A   25353.21456793  .00003424  00000+0  18927-3 0  9991", "line2": "2 60452  45.0023 275.4208 0015578 233.6094 126.3348 15.15826747 74716"}}, "geometry": {"type": "Point", "coordinates": [-135.2088038545564, -36.22993194571474]}}, {"type": "Feature", "properties": {"norad_id": 60453, "name": "LEGION 4", "group": "resource", "lat": -37.159282720223054, "lon": -45.521897841054916, "alt_km": 517.5028923056534, "timestamp": "2025-12-19T20:42:59.739116+00:00", "meta": {"OBJECT_NAME": "LEGION 4", "OBJECT_ID": "2024-146B", "EPOCH": "2025-12-19T03:34:35.526720", "MEAN_MOTION": 15.15888556, "ECCENTRICITY": 0.00088759, "INCLINATION": 45.0395, "RA_OF_ASC_NODE": 7.5425, "ARG_OF_PERICENTER": 345.0798, "MEAN_ANOMALY": 14.9818, "EPHEMERIS_TYPE": 0, "CLASSIFICATION_TYPE": "U", "NORAD_CAT_ID": 60453, "ELEMENT_SET_NO": 999, "REV_AT_EPOCH": 7355, "BSTAR": 0.00020403401, "MEAN_MOTION_DOT": 3.712e-05, "MEAN_MOTION_DDOT": 0}, "tle": {"line1": "1 60453U 24146B   25353.14902230  .00003712  00000+0  20403-3 0  9998", "line2": "2 60453  45.0395   7.5425 0008875 345.0798  14.9818 15.15888556 73556"}}, "geometry": {"type": "Point", "coordinates": [-45.521897841054916, -37.159282720223054]}}]}